[
  {
    "OBJECT_NAME": "METEOR-M2 4",
    "OBJECT_ID": "2024-039A",
    "EPOCH": "2025-06-21T21:13:20.655840",
    "MEAN_MOTION": 14.22369163,
    "ECCENTRICITY": 0.000793,
    "INCLINATION": 98.65,
    "RA_OF_ASC_NODE": 132.7933,
    "ARG_OF_PERICENTER": 127.0167,
    "MEAN_ANOMALY": 233.1738,
    "EPHEMERIS_TYPE": 0,
    "CLASSIFICATION_TYPE": "U",
    "NORAD_CAT_ID": 59051,
    "ELEMENT_SET_NO": 999,
    "REV_AT_EPOCH": 6804,
    "BSTAR": 1.8131e-05,
    "MEAN_MOTION_DOT": -3e-08,
    "MEAN_MOTION_DDOT": 0
  },
  {
    "OBJECT_NAME": "GOES 19",
    "OBJECT_ID": "2024-119A",
    "EPOCH": "2025-06-21T13:24:00.873216",
    "MEAN_MOTION": 1.00270045,
    "ECCENTRICITY": 4.17e-05,
    "INCLINATION": 0.053,
    "RA_OF_ASC_NODE": 149.724,
    "ARG_OF_PERICENTER": 65.4222,
    "MEAN_ANOMALY": 180.6541,
    "EPHEMERIS_TYPE": 0,
    "CLASSIFICATION_TYPE": "U",
    "NORAD_CAT_ID": 60133,
    "ELEMENT_SET_NO": 999,
    "REV_AT_EPOCH": 334,
    "BSTAR": 0,
    "MEAN_MOTION_DOT": -2.38e-06,
    "MEAN_MOTION_DDOT": 0
  }
]