METEOR-M2 4             
1 59051U 24039A   25172.88426685 -.00000003  00000+0  18131-4 0  9993
2 59051  98.6500 132.7933 0007930 127.0167 233.1738 14.22369163 68043
GOES 19                 
1 60133U 24119A   25172.55834344 -.00000238  00000+0  00000+0 0  9995
2 60133   0.0530 149.7240 0000417  65.4222 180.6541  1.00270045  3347
